start=new Date('2023-01-17T00:00:00.000Z').valueOf();
sats=[{"MEAN_ELEMENT_THEORY":"SGP4","RA_OF_ASC_NODE":"341.8444","PERIOD":"95.534","MEAN_MOTION_DDOT":"0.0000000000000","TLE_LINE2":"2 44760  53.0530 341.8444 0002897  89.2090 270.9231 15.07314551175112","ARG_OF_PERICENTER":"89.2090","INCLINATION":"53.0530","GP_ID":"223197126","FILE":"3749606","COUNTRY_CODE":"US","LAUNCH_DATE":"2019-11-11","SEMIMAJOR_AXIS":"6922.547","APOAPSIS":"546.417","SITE":"AFETR","RCS_SIZE":"LARGE","MEAN_MOTION":"15.07314551","NORAD_CAT_ID":"44760","REF_FRAME":"TEME","CENTER_NAME":"EARTH","EPHEMERIS_TYPE":"0","CLASSIFICATION_TYPE":"U","ECCENTRICITY":"0.00028970","REV_AT_EPOCH":"17511","OBJECT_ID":"2019-074AZ","PERIAPSIS":"542.407","MEAN_ANOMALY":"270.9231","EPOCH":"2023-01-16T07:30:28.322784","OBJECT_NAME":"STARLINK-1055","ELEMENT_SET_NO":"999","TLE_LINE1":"1 44760U 19074AZ  23016.31282781  .00049964  00000-0  32676-2 0  9994","MEAN_MOTION_DOT":"0.00049964","TIME_SYSTEM":"UTC","DECAY_DATE":null,"OBJECT_TYPE":"PAYLOAD","BSTAR":"0.00326760000000"},{"BSTAR":"-0.00042959000000","TIME_SYSTEM":"UTC","DECAY_DATE":null,"OBJECT_TYPE":"PAYLOAD","MEAN_MOTION_DOT":"-0.00006672","TLE_LINE1":"1 44761U 19074BA  23016.85922395 -.00006672  00000-0 -42959-3 0  9993","ELEMENT_SET_NO":"999","OBJECT_NAME":"STARLINK-1056","MEAN_ANOMALY":"265.8339","EPOCH":"2023-01-16T20:37:16.949280","PERIAPSIS":"546.212","OBJECT_ID":"2019-074BA","ECCENTRICITY":"0.00015020","REV_AT_EPOCH":"17519","CLASSIFICATION_TYPE":"U","EPHEMERIS_TYPE":"0","CENTER_NAME":"EARTH","REF_FRAME":"TEME","MEAN_MOTION":"15.06387543","NORAD_CAT_ID":"44761","SITE":"AFETR","RCS_SIZE":"LARGE","APOAPSIS":"548.292","SEMIMAJOR_AXIS":"6925.387","COUNTRY_CODE":"US","GP_ID":"223249199","FILE":"3750956","LAUNCH_DATE":"2019-11-11","TLE_LINE2":"2 44761  53.0510 339.4432 0001502  94.2822 265.8339 15.06387543175192","MEAN_MOTION_DDOT":"0.0000000000000","INCLINATION":"53.0510","ARG_OF_PERICENTER":"94.2822","RA_OF_ASC_NODE":"339.4432","MEAN_ELEMENT_THEORY":"SGP4","PERIOD":"95.593"},{"RA_OF_ASC_NODE":"319.4277","MEAN_ELEMENT_THEORY":"SGP4","PERIOD":"95.594","MEAN_MOTION_DDOT":"0.0000000000000","TLE_LINE2":"2 44762  53.0536 319.4277 0001670  78.5532 281.5644 15.06375284175468","ARG_OF_PERICENTER":"78.5532","INCLINATION":"53.0536","COUNTRY_CODE":"US","FILE":"3750956","GP_ID":"223248449","LAUNCH_DATE":"2019-11-11","APOAPSIS":"548.446","SEMIMAJOR_AXIS":"6925.424","SITE":"AFETR","RCS_SIZE":"LARGE","MEAN_MOTION":"15.06375284","NORAD_CAT_ID":"44762","CENTER_NAME":"EARTH","REF_FRAME":"TEME","EPHEMERIS_TYPE":"0","CLASSIFICATION_TYPE":"U","ECCENTRICITY":"0.00016700","REV_AT_EPOCH":"17546","PERIAPSIS":"546.133","OBJECT_ID":"2019-074BB","OBJECT_NAME":"STARLINK-1057","MEAN_ANOMALY":"281.5644","EPOCH":"2023-01-16T20:39:57.054528","TLE_LINE1":"1 44762U 19074BB  23016.86107702 -.00007548  00000-0 -48871-3 0  9994","MEAN_MOTION_DOT":"-0.00007548","ELEMENT_SET_NO":"999","TIME_SYSTEM":"UTC","OBJECT_TYPE":"PAYLOAD","DECAY_DATE":null,"BSTAR":"-0.00048871000000"},{"CLASSIFICATION_TYPE":"U","REV_AT_EPOCH":"17519","ECCENTRICITY":"0.00013420","PERIAPSIS":"546.371","OBJECT_ID":"2019-074BC","MEAN_ANOMALY":"266.6855","EPOCH":"2023-01-16T21:07:46.799328","OBJECT_NAME":"STARLINK-1058","ELEMENT_SET_NO":"999","TLE_LINE1":"1 44763U 19074BC  23016.88040277 -.00011381  00000-0 -74697-3 0  9995","MEAN_MOTION_DOT":"-0.00011381","TIME_SYSTEM":"UTC","DECAY_DATE":null,"OBJECT_TYPE":"PAYLOAD","BSTAR":"-0.00074697000000","MEAN_ELEMENT_THEORY":"SGP4","RA_OF_ASC_NODE":"339.3267","PERIOD":"95.594","ARG_OF_PERICENTER":"93.4288","TLE_LINE2":"2 44763  53.0562 339.3267 0001342  93.4288 266.6855 15.06371537175193","MEAN_MOTION_DDOT":"0.0000000000000","INCLINATION":"53.0562","FILE":"3750956","GP_ID":"223248698","COUNTRY_CODE":"US","LAUNCH_DATE":"2019-11-11","SEMIMAJOR_AXIS":"6925.436","APOAPSIS":"548.230","SITE":"AFETR","RCS_SIZE":"LARGE","MEAN_MOTION":"15.06371537","NORAD_CAT_ID":"44763","REF_FRAME":"TEME","CENTER_NAME":"EARTH","EPHEMERIS_TYPE":"0"},{"RCS_SIZE":"LARGE","SITE":"AFETR","NORAD_CAT_ID":"44764","MEAN_MOTION":"15.13660094","CENTER_NAME":"EARTH","REF_FRAME":"TEME","EPHEMERIS_TYPE":"0","PERIOD":"95.134","RA_OF_ASC_NODE":"315.1671","MEAN_ELEMENT_THEORY":"SGP4","ARG_OF_PERICENTER":"43.0430","TLE_LINE2":"2 44764  53.0567 315.1671 0002070  43.0430 317.0724 15.13660094175529","MEAN_MOTION_DDOT":"0.0000000000000","INCLINATION":"53.0567","LAUNCH_DATE":"2019-11-11","COUNTRY_CODE":"US","FILE":"3750956","GP_ID":"223248945","APOAPSIS":"526.480","SEMIMAJOR_AXIS":"6903.186","MEAN_MOTION_DOT":"0.00059072","TLE_LINE1":"1 44764U 19074BD  23016.83280433  .00059072  00000-0  32368-2 0  9996","ELEMENT_SET_NO":"999","OBJECT_TYPE":"PAYLOAD","DECAY_DATE":null,"TIME_SYSTEM":"UTC","BSTAR":"0.00323680000000","CLASSIFICATION_TYPE":"U","REV_AT_EPOCH":"17552","ECCENTRICITY":"0.00020700","OBJECT_ID":"2019-074BD","PERIAPSIS":"523.622","OBJECT_NAME":"STARLINK-1059","MEAN_ANOMALY":"317.0724","EPOCH":"2023-01-16T19:59:14.294112"},{"EPHEMERIS_TYPE":"0","REF_FRAME":"TEME","CENTER_NAME":"EARTH","MEAN_MOTION":"15.06354524","NORAD_CAT_ID":"44765","SITE":"AFETR","RCS_SIZE":"LARGE","SEMIMAJOR_AXIS":"6925.488","APOAPSIS":"548.029","GP_ID":"223249699","FILE":"3750956","COUNTRY_CODE":"US","LAUNCH_DATE":"2019-11-11","ARG_OF_PERICENTER":"77.3361","TLE_LINE2":"2 44765  53.0527 319.3612 0000976  77.3361 282.7737 15.06354524175468","MEAN_MOTION_DDOT":"0.0000000000000","INCLINATION":"53.0527","MEAN_ELEMENT_THEORY":"SGP4","RA_OF_ASC_NODE":"319.3612","PERIOD":"95.595","BSTAR":"0.00100320000000","TIME_SYSTEM":"UTC","OBJECT_TYPE":"PAYLOAD","DECAY_DATE":null,"ELEMENT_SET_NO":"999","TLE_LINE1":"1 44765U 19074BE  23016.87581328  .00014674  00000-0  10032-2 0  9991","MEAN_MOTION_DOT":"0.00014674","MEAN_ANOMALY":"282.7737","EPOCH":"2023-01-16T21:01:10.267392","OBJECT_NAME":"STARLINK-1060","PERIAPSIS":"546.677","OBJECT_ID":"2019-074BE","REV_AT_EPOCH":"17546","ECCENTRICITY":"0.00009760","CLASSIFICATION_TYPE":"U"},{"ECCENTRICITY":"0.00014000","REV_AT_EPOCH":"17518","CLASSIFICATION_TYPE":"U","EPOCH":"2023-01-16T19:22:59.211264","MEAN_ANOMALY":"248.9028","OBJECT_NAME":"STARLINK-1061","OBJECT_ID":"2019-074BF","PERIAPSIS":"546.294","ELEMENT_SET_NO":"999","MEAN_MOTION_DOT":"-0.00004360","TLE_LINE1":"1 44766U 19074BF  23016.80762976 -.00004360  00000-0 -27408-3 0  9994","BSTAR":"-0.00027408000000","DECAY_DATE":null,"OBJECT_TYPE":"PAYLOAD","TIME_SYSTEM":"UTC","MEAN_MOTION_DDOT":"0.0000000000000","TLE_LINE2":"2 44766  53.0539 339.6630 0001400 111.2110 248.9028 15.06383649175186","ARG_OF_PERICENTER":"111.2110","INCLINATION":"53.0539","PERIOD":"95.593","MEAN_ELEMENT_THEORY":"SGP4","RA_OF_ASC_NODE":"339.6630","SEMIMAJOR_AXIS":"6925.399","APOAPSIS":"548.233","LAUNCH_DATE":"2019-11-11","GP_ID":"223247949","FILE":"3750956","COUNTRY_CODE":"US","NORAD_CAT_ID":"44766","MEAN_MOTION":"15.06383649","RCS_SIZE":"LARGE","SITE":"AFETR","EPHEMERIS_TYPE":"0","REF_FRAME":"TEME","CENTER_NAME":"EARTH"},{"BSTAR":"-0.00053108000000","OBJECT_TYPE":"PAYLOAD","DECAY_DATE":null,"TIME_SYSTEM":"UTC","ELEMENT_SET_NO":"999","MEAN_MOTION_DOT":"-0.00008177","TLE_LINE1":"1 44767U 19074BG  23016.93200984 -.00008177  00000-0 -53108-3 0  9991","MEAN_ANOMALY":"276.0497","EPOCH":"2023-01-16T22:22:05.650176","OBJECT_NAME":"STARLINK-1062","OBJECT_ID":"2019-074BG","PERIAPSIS":"546.247","REV_AT_EPOCH":"17520","ECCENTRICITY":"0.00015170","CLASSIFICATION_TYPE":"U","EPHEMERIS_TYPE":"0","REF_FRAME":"TEME","CENTER_NAME":"EARTH","NORAD_CAT_ID":"44767","MEAN_MOTION":"15.06372520","RCS_SIZE":"LARGE","SITE":"AFETR","SEMIMAJOR_AXIS":"6925.433","APOAPSIS":"548.348","LAUNCH_DATE":"2019-11-11","FILE":"3750956","GP_ID":"223248199","COUNTRY_CODE":"US","MEAN_MOTION_DDOT":"0.0000000000000","TLE_LINE2":"2 44767  53.0546 339.1014 0001517  84.0665 276.0497 15.06372520175208","ARG_OF_PERICENTER":"84.0665","INCLINATION":"53.0546","PERIOD":"95.594","MEAN_ELEMENT_THEORY":"SGP4","RA_OF_ASC_NODE":"339.1014"},{"ELEMENT_SET_NO":"999","MEAN_MOTION_DOT":"0.00007333","TLE_LINE1":"1 44768U 19074BH  23016.88871725  .00007333  00000-0  51089-3 0  9990","DECAY_DATE":null,"OBJECT_TYPE":"PAYLOAD","TIME_SYSTEM":"UTC","BSTAR":"0.00051089000000","CLASSIFICATION_TYPE":"U","REV_AT_EPOCH":"17520","ECCENTRICITY":"0.00016810","PERIAPSIS":"546.105","OBJECT_ID":"2019-074BH","EPOCH":"2023-01-16T21:19:45.170400","MEAN_ANOMALY":"251.3225","OBJECT_NAME":"STARLINK-1063","RCS_SIZE":"LARGE","SITE":"AFETR","NORAD_CAT_ID":"44768","MEAN_MOTION":"15.06381806","REF_FRAME":"TEME","CENTER_NAME":"EARTH","EPHEMERIS_TYPE":"0","PERIOD":"95.593","MEAN_ELEMENT_THEORY":"SGP4","RA_OF_ASC_NODE":"339.2970","MEAN_MOTION_DDOT":"0.0000000000000","TLE_LINE2":"2 44768  53.0574 339.2970 0001681 108.7946 251.3225 15.06381806175202","ARG_OF_PERICENTER":"108.7946","INCLINATION":"53.0574","LAUNCH_DATE":"2019-11-11","FILE":"3750956","GP_ID":"223249445","COUNTRY_CODE":"US","SEMIMAJOR_AXIS":"6925.404","APOAPSIS":"548.433"},{"LAUNCH_DATE":"2019-11-11","GP_ID":"223197878","FILE":"3749606","COUNTRY_CODE":"US","SEMIMAJOR_AXIS":"6848.813","APOAPSIS":"473.270","PERIOD":"94.012","MEAN_ELEMENT_THEORY":"SGP4","RA_OF_ASC_NODE":"304.4101","TLE_LINE2":"2 44770  53.0020 304.4101 0003784 118.0834 242.0548 15.31721498175553","INCLINATION":"53.0020","MEAN_MOTION_DDOT":"0.0000000000000","ARG_OF_PERICENTER":"118.0834","REF_FRAME":"TEME","CENTER_NAME":"EARTH","EPHEMERIS_TYPE":"0","RCS_SIZE":"LARGE","SITE":"AFETR","NORAD_CAT_ID":"44770","MEAN_MOTION":"15.31721498","OBJECT_ID":"2019-074BK","PERIAPSIS":"468.086","MEAN_ANOMALY":"242.0548","EPOCH":"2023-01-15T22:31:20.752032","OBJECT_NAME":"STARLINK-1065","CLASSIFICATION_TYPE":"U","REV_AT_EPOCH":"17555","ECCENTRICITY":"0.00037840","OBJECT_TYPE":"PAYLOAD","DECAY_DATE":null,"TIME_SYSTEM":"UTC","BSTAR":"0.00493650000000","ELEMENT_SET_NO":"999","MEAN_MOTION_DOT":"0.00156200","TLE_LINE1":"1 44770U 19074BK  23015.93843463  .00156200  00000-0  49365-2 0  9997"}];
